ONEWEB-0634             
1 56075U 23043AF  25131.87043850  .00000152  00000+0  36894-3 0  9992
2 56075  87.9062 339.2159 0001902  97.9046 262.2300 13.15547309103632
ONEWEB-0635             
1 56076U 23043AG  25131.86567872  .00000194  00000+0  48152-3 0  9993
2 56076  87.9032 339.2126 0001804  76.5489 283.5842 13.15549762103664
ONEWEB-0636             
1 56077U 23043AH  25131.85775737  .00000146  00000+0  35488-3 0  9999
2 56077  87.9040 339.2203 0001796  78.4108 281.7224 13.15547917103641
ONEWEB-0637             
1 56078U 23043AJ  25131.85142898  .00000020  00000+0  18671-4 0  9993
2 56078  87.9060 339.2185 0002078  82.7173 277.4193 13.15549423103660
ONEWEB-0647             
1 56079U 23043AK  25131.84666928 -.00000036  00000+0 -12851-3 0  9990
2 56079  87.9057 339.2299 0001633  81.3476 278.7839 13.15547650103650
ONEWEB-0651             
1 56080U 23043AL  25131.84191840 -.00000042  00000+0 -14605-3 0  9994
2 56080  87.9061 339.2177 0001963  78.8930 281.2421 13.15547692104859
ONEWEB-0718             
1 56081U 23043AM  25131.83716490 -.00000154  00000+0 -44217-3 0  9994
2 56081  87.9059 339.2022 0002067  99.5237 260.6127 13.15548655103664
ONEWEB-0561             
1 56710U 23068A   25131.91405712  .00000029  00000+0  38227-4 0  9995
2 56710  87.9271 354.3749 0001770  66.6776 293.4543 13.20772229 96531
